{
  "norad_id": 68420,
  "name": "TRANSPORTER-16 OBJECT E",
  "history": [
    {
      "epoch": "2026-04-14T03:08:04.747200Z",
      "apogee_km": 512.5602277177059,
      "perigee_km": 507.62549984329416,
      "latitude_deg": -3.174434509857041e-05,
      "longitude_deg": 174.23067508005968,
      "height_km": 513.4924579443306,
      "semi_major_axis_km": 6888.2298637805,
      "eccentricity": 0.0003582,
      "inclination_deg": 97.4433,
      "raan_deg": 63.5619,
      "arg_perigee_deg": 97.4122,
      "mean_anomaly_deg": 262.7519,
      "mean_motion_rev_day": 15.18592725
    }
  ]
}