{"fetched_at":"2026-04-16T06:04:01Z","count":5425,"tles":[{"name":"TRANSPORTER-16 OBJECT E","line1":"1 68420U 26067E   26104.13061050  .00005787  00000+0  28301-3 0  9993","line2":"2 68420  97.4433  63.5619 0003582  97.4122 262.7519 15.18592725  2228","category":"Other"}]}